{
  "id": 890464139,
  "type": "Feature",
  "properties": {
    "edtf:cessation":"uuuu",
    "edtf:inception":"uuuu",
    "geom:area":0.119412,
    "geom:area_square_m":1136782974.195052,
    "geom:bbox":"33.428481,39.463215,33.971794,39.827905",
    "geom:latitude":39.656002,
    "geom:longitude":33.694077,
    "gn:country":"TR",
    "gn:fcode":"PPLA2",
    "gn:population":49679,
    "gp:adm0":23424969,
    "iso:country":"TR",
    "label:eng_x_preferred_longname":[
        "Keskin District"
    ],
    "label:eng_x_preferred_placetype":[
        "district"
    ],
    "label:tur_x_preferred_longname":[
        "Keskin il\u00e7e"
    ],
    "label:tur_x_preferred_placetype":[
        "il\u00e7e"
    ],
    "lbl:latitude":39.667692,
    "lbl:longitude":33.699244,
    "lbl:max_zoom":10.0,
    "lbl:min_zoom":8.0,
    "meso:admin1_en":"Kirikkale",
    "meso:admin_1":"Kirikkale",
    "meso:gadm_admin":"Keskin",
    "meso:gadm_hasc2":"TR.KK.KE",
    "meso:gaul_adm2":"Keskin",
    "meso:mps_x":33.699244,
    "meso:mps_y":39.667692,
    "meso:name_local":"Keskin",
    "meso:source":"AOTM",
    "mps:latitude":39.667692,
    "mps:longitude":33.699244,
    "mz:hierarchy_label":1,
    "mz:is_current":1,
    "mz:min_zoom":6.0,
    "name:eng_x_preferred":[
        "Keskin"
    ],
    "name:ita_x_preferred":[
        "Distretto di Keskin"
    ],
    "name:nld_x_preferred":[
        "Keskin"
    ],
    "name:rus_x_preferred":[
        "\u041a\u0435\u0441\u043a\u0438\u043d"
    ],
    "qs:name":"Keskin",
    "qs:name_adm0":"Turkey",
    "qs:name_adm1":"K\u0131r\u0131kkale",
    "qs:photos_9k":1,
    "qs:photos_9r":1,
    "qs:photos_all":18,
    "qs:photos_sr":0,
    "qs:placetype":"County",
    "qs:pop_sr":"7",
    "src:geom":"meso",
    "src:geom_alt":[
        "quattroshapes"
    ],
    "src:lbl_centroid":"mapshaper",
    "src:population":"statoids",
    "src:population_date":"2007-12-31",
    "statoids:area_km":"1129",
    "statoids:as_of_date":"2007-12-31",
    "statoids:capital":"Keskin",
    "statoids:country":"TR",
    "statoids:hasc":"TR.KK",
    "statoids:name":"Keskin",
    "statoids:population":"21371",
    "statoids:statoid":"TR.KK.KE",
    "statoids:timezone":"+2~",
    "statoids:type":"district",
    "wd:elevation":1123.0,
    "wd:latitude":"39.67305556",
    "wd:longitude":"33.61361111",
    "wd:wordcount":310,
    "wof:belongsto":[
        102191569,
        85632393,
        85679447
    ],
    "wof:breaches":[],
    "wof:concordances":{
        "gn:id":308024,
        "gp:id":29390495,
        "hasc:id":"TR.KK.KE",
        "qs_pg:id":207404,
        "wd:id":"Q2018321",
        "wk:page":"Keskin"
    },
    "wof:concordances_official":"hasc:id",
    "wof:country":"TR",
    "wof:created":1469053461,
    "wof:geom_alt":[
        "quattroshapes"
    ],
    "wof:geomhash":"aecde7ee73601b6b30ad592feaeb094d",
    "wof:hierarchy":[
        {
            "continent_id":102191569,
            "country_id":85632393,
            "county_id":890464139,
            "region_id":85679447
        }
    ],
    "wof:id":890464139,
    "wof:lastmodified":1695886724,
    "wof:name":"Keskin",
    "wof:parent_id":85679447,
    "wof:placetype":"county",
    "wof:placetype_local":"district",
    "wof:population":21371,
    "wof:population_rank":7,
    "wof:repo":"whosonfirst-data-admin-tr",
    "wof:shortcode":"KE",
    "wof:superseded_by":[],
    "wof:supersedes":[],
    "wof:tags":[]
},
  "bbox": [
    33.428481,
    39.463215,
    33.971794,
    39.827905
],
  "geometry": {"coordinates":[[[33.463053,39.642717],[33.481856,39.638035],[33.485215,39.643411],[33.48353,39.651453],[33.479183,39.657053],[33.475027,39.661476],[33.470667,39.664626],[33.464731,39.664371],[33.457448,39.664417],[33.452822,39.669336],[33.454585,39.676579],[33.460494,39.682212],[33.465965,39.687889],[33.469069,39.695584],[33.47082,39.70323],[33.472189,39.707873],[33.472743,39.709147],[33.487954,39.708553],[33.490324,39.711046],[33.490119,39.717293],[33.490378,39.724379],[33.494137,39.728396],[33.501088,39.729616],[33.507177,39.729631],[33.51054,39.730049],[33.513521,39.733369],[33.518184,39.740156],[33.524858,39.74733],[33.53196,39.752347],[33.537796,39.756124],[33.542651,39.760871],[33.547385,39.766778],[33.553126,39.772802],[33.559797,39.777545],[33.567753,39.778942],[33.577544,39.779206],[33.586661,39.782138],[33.594519,39.786248],[33.601403,39.789235],[33.606358,39.791325],[33.611358,39.792643],[33.617806,39.7932],[33.624906,39.793208],[33.63212,39.792166],[33.638693,39.790712],[33.643199,39.790403],[33.645932,39.791619],[33.649531,39.793963],[33.654857,39.795803],[33.660763,39.796682],[33.665393,39.798102],[33.667349,39.799597],[33.667632,39.800084],[33.690019,39.80797],[33.697288,39.809815],[33.705539,39.810286],[33.714321,39.809111],[33.725333,39.807108],[33.734788,39.804152],[33.740308,39.80013],[33.744982,39.796442],[33.751027,39.793214],[33.75796,39.789654],[33.7664,39.78597],[33.777828,39.783917],[33.788215,39.784021],[33.793999,39.784765],[33.797899,39.785587],[33.802524,39.788412],[33.810659,39.795257],[33.822795,39.803282],[33.832964,39.809423],[33.8388,39.814442],[33.845689,39.819537],[33.854877,39.824431],[33.860978,39.827276],[33.862497,39.827905],[33.870109,39.80907],[33.873537,39.803657],[33.880869,39.795178],[33.888775,39.788174],[33.894327,39.785803],[33.901893,39.786194],[33.913667,39.78587],[33.924217,39.783615],[33.930071,39.779351],[33.934386,39.772994],[33.939162,39.766686],[33.943402,39.761011],[33.946899,39.753894],[33.94878,39.746763],[33.948616,39.740795],[33.949716,39.734663],[33.954349,39.730114],[33.958878,39.728565],[33.960316,39.728387],[33.960612,39.726875],[33.961114,39.721889],[33.9602,39.715799],[33.957289,39.712055],[33.954207,39.70946],[33.952404,39.704834],[33.952332,39.697652],[33.954634,39.69117],[33.959693,39.688011],[33.971794,39.677996],[33.971596,39.677714],[33.969762,39.676174],[33.96526,39.673279],[33.959993,39.670959],[33.955612,39.670374],[33.950616,39.669814],[33.943277,39.666175],[33.936122,39.65957],[33.932397,39.653926],[33.930188,39.650931],[33.926295,39.649005],[33.920786,39.646948],[33.914553,39.644094],[33.906983,39.638958],[33.899946,39.632247],[33.89609,39.627824],[33.892927,39.627479],[33.886245,39.628196],[33.876484,39.624378],[33.867759,39.616378],[33.860317,39.61008],[33.853099,39.604967],[33.846925,39.59837],[33.840056,39.592388],[33.834175,39.587261],[33.831448,39.580075],[33.827784,39.570138],[33.821995,39.561084],[33.81588,39.556197],[33.80979,39.553855],[33.803961,39.551464],[33.79887,39.54947],[33.794742,39.548728],[33.789582,39.547374],[33.78287,39.543265],[33.778012,39.538434],[33.773566,39.535397],[33.76442,39.533819],[33.754645,39.534136],[33.749027,39.535351],[33.743776,39.534715],[33.73858,39.531981],[33.736442,39.527529],[33.737856,39.521433],[33.743223,39.515265],[33.750004,39.511327],[33.755182,39.51007],[33.759037,39.509848],[33.770617,39.504143],[33.770597,39.503013],[33.770193,39.498842],[33.769193,39.492913],[33.766838,39.487083],[33.76171,39.480502],[33.754827,39.474557],[33.748291,39.470997],[33.741659,39.469466],[33.733079,39.470761],[33.724361,39.474833],[33.718886,39.479791],[33.715304,39.484431],[33.711347,39.488313],[33.705498,39.491707],[33.69753,39.495289],[33.690841,39.49848],[33.686216,39.499924],[33.67933,39.498383],[33.669154,39.493739],[33.661585,39.488865],[33.659676,39.485696],[33.659025,39.481986],[33.654581,39.476705],[33.646157,39.472283],[33.638048,39.469235],[33.621886,39.463215],[33.612281,39.472277],[33.608108,39.475304],[33.603243,39.480889],[33.597672,39.487084],[33.593303,39.491019],[33.589699,39.495216],[33.584205,39.500161],[33.576605,39.504358],[33.569939,39.507193],[33.564917,39.508319],[33.559702,39.508345],[33.554875,39.508017],[33.551151,39.509106],[33.546881,39.513294],[33.54148,39.519891],[33.537318,39.527213],[33.534643,39.533683],[33.530184,39.539727],[33.523619,39.545688],[33.517109,39.550368],[33.510806,39.555347],[33.50375,39.561278],[33.496585,39.565379],[33.490283,39.566722],[33.48543,39.566558],[33.481958,39.565464],[33.477232,39.563997],[33.470215,39.56439],[33.463015,39.566752],[33.456475,39.568477],[33.449803,39.568273],[33.442315,39.565719],[33.435041,39.562925],[33.430369,39.56266],[33.428726,39.563546],[33.428481,39.563839],[33.431059,39.584115],[33.436473,39.59056],[33.439175,39.597055],[33.436741,39.602668],[33.434652,39.608112],[33.436862,39.615771],[33.440421,39.623274],[33.444706,39.627694],[33.452271,39.632403],[33.459677,39.638308],[33.462701,39.641897],[33.463053,39.642717]]],"type":"Polygon"}
}